start=new Date('2023-05-22T00:00:00.000Z').valueOf();
sats=[{"RCS_SIZE":"LARGE","EPOCH":"2023-05-21T12:01:33.703392","OBJECT_NAME":"STARLINK-1083","LAUNCH_DATE":"2020-01-07","CLASSIFICATION_TYPE":"U","PERIOD":"95.588","APOAPSIS":"547.745","MEAN_MOTION_DDOT":"0.0000000000000","OBJECT_TYPE":"PAYLOAD","TLE_LINE2":"2 44939  53.0536 239.8851 0001053  66.8526 293.2574 15.06464625185905","COUNTRY_CODE":"US","BSTAR":"0.00133830000000","EPHEMERIS_TYPE":"0","SEMIMAJOR_AXIS":"6925.150","OBJECT_ID":"2020-001AB","ELEMENT_SET_NO":"999","CENTER_NAME":"EARTH","MEAN_MOTION":"15.06464625","TLE_LINE1":"1 44939U 20001AB  23141.50108453  .00019743  00000-0  13383-2 0  9993","MEAN_ANOMALY":"293.2574","MEAN_ELEMENT_THEORY":"SGP4","REF_FRAME":"TEME","REV_AT_EPOCH":"18590","ECCENTRICITY":"0.00010530","RA_OF_ASC_NODE":"239.8851","SITE":"AFETR","PERIAPSIS":"546.286","INCLINATION":"53.0536","GP_ID":"232245838","NORAD_CAT_ID":"44939","TIME_SYSTEM":"UTC","ARG_OF_PERICENTER":"66.8526","MEAN_MOTION_DOT":"0.00019743","FILE":"3913738","DECAY_DATE":null},{"ELEMENT_SET_NO":"999","CENTER_NAME":"EARTH","EPHEMERIS_TYPE":"0","OBJECT_ID":"2020-001AC","SEMIMAJOR_AXIS":"6925.152","TLE_LINE2":"2 44940  53.0536 239.2411 0000889  80.0390 280.0699 15.06464117185926","COUNTRY_CODE":"US","BSTAR":"0.00122240000000","PERIOD":"95.588","CLASSIFICATION_TYPE":"U","OBJECT_TYPE":"PAYLOAD","MEAN_MOTION_DDOT":"0.0000000000000","APOAPSIS":"547.633","LAUNCH_DATE":"2020-01-07","EPOCH":"2023-05-21T15:28:33.620448","RCS_SIZE":"LARGE","OBJECT_NAME":"STARLINK-1091","FILE":"3914061","DECAY_DATE":null,"MEAN_MOTION_DOT":"0.00018004","ARG_OF_PERICENTER":"80.0390","TIME_SYSTEM":"UTC","GP_ID":"232279557","NORAD_CAT_ID":"44940","INCLINATION":"53.0536","PERIAPSIS":"546.401","ECCENTRICITY":"0.00008890","SITE":"AFETR","RA_OF_ASC_NODE":"239.2411","REF_FRAME":"TEME","REV_AT_EPOCH":"18592","TLE_LINE1":"1 44940U 20001AC  23141.64483357  .00018004  00000-0  12224-2 0  9991","MEAN_MOTION":"15.06464117","MEAN_ANOMALY":"280.0699","MEAN_ELEMENT_THEORY":"SGP4"},{"TIME_SYSTEM":"UTC","ARG_OF_PERICENTER":"75.9667","GP_ID":"232280809","NORAD_CAT_ID":"44941","FILE":"3914061","DECAY_DATE":null,"MEAN_MOTION_DOT":"0.00021045","REF_FRAME":"TEME","REV_AT_EPOCH":"18591","TLE_LINE1":"1 44941U 20001AD  23141.53428882  .00021045  00000-0  14275-2 0  9999","MEAN_MOTION":"15.06400795","MEAN_ELEMENT_THEORY":"SGP4","MEAN_ANOMALY":"284.1437","INCLINATION":"53.0529","PERIAPSIS":"546.494","ECCENTRICITY":"0.00010360","SITE":"AFETR","RA_OF_ASC_NODE":"239.7395","TLE_LINE2":"2 44941  53.0529 239.7395 0001036  75.9667 284.1437 15.06400795185916","COUNTRY_CODE":"US","BSTAR":"0.00142750000000","ELEMENT_SET_NO":"999","CENTER_NAME":"EARTH","EPHEMERIS_TYPE":"0","OBJECT_ID":"2020-001AD","SEMIMAJOR_AXIS":"6925.346","LAUNCH_DATE":"2020-01-07","EPOCH":"2023-05-21T12:49:22.554048","RCS_SIZE":"LARGE","OBJECT_NAME":"STARLINK-1094","PERIOD":"95.592","CLASSIFICATION_TYPE":"U","OBJECT_TYPE":"PAYLOAD","APOAPSIS":"547.929","MEAN_MOTION_DDOT":"0.0000000000000"},{"BSTAR":"0.00036952000000","COUNTRY_CODE":"US","TLE_LINE2":"2 44942  53.0484 223.2837 0003843 176.5838 183.5184 15.20724898186159","CENTER_NAME":"EARTH","ELEMENT_SET_NO":"999","OBJECT_ID":"2020-001AE","SEMIMAJOR_AXIS":"6881.790","EPHEMERIS_TYPE":"0","LAUNCH_DATE":"2020-01-07","OBJECT_NAME":"STARLINK-1096","EPOCH":"2023-05-21T13:11:51.790272","RCS_SIZE":"LARGE","OBJECT_TYPE":"PAYLOAD","APOAPSIS":"506.299","MEAN_MOTION_DDOT":"0.0000000000000","PERIOD":"94.692","CLASSIFICATION_TYPE":"U","TIME_SYSTEM":"UTC","ARG_OF_PERICENTER":"176.5838","NORAD_CAT_ID":"44942","GP_ID":"232280559","DECAY_DATE":null,"FILE":"3914061","MEAN_MOTION_DOT":"0.00007915","REV_AT_EPOCH":"18615","REF_FRAME":"TEME","MEAN_ANOMALY":"183.5184","MEAN_ELEMENT_THEORY":"SGP4","TLE_LINE1":"1 44942U 20001AE  23141.54990498  .00007915  00000-0  36952-3 0  9995","MEAN_MOTION":"15.20724898","INCLINATION":"53.0484","PERIAPSIS":"501.010","SITE":"AFETR","RA_OF_ASC_NODE":"223.2837","ECCENTRICITY":"0.00038430"},{"CLASSIFICATION_TYPE":"U","PERIOD":"95.588","APOAPSIS":"547.731","MEAN_MOTION_DDOT":"0.0000000000000","OBJECT_TYPE":"PAYLOAD","LAUNCH_DATE":"2020-01-07","RCS_SIZE":"LARGE","EPOCH":"2023-05-21T16:42:51.394752","OBJECT_NAME":"STARLINK-1100","ELEMENT_SET_NO":"999","CENTER_NAME":"EARTH","EPHEMERIS_TYPE":"0","SEMIMAJOR_AXIS":"6925.129","OBJECT_ID":"2020-001AF","COUNTRY_CODE":"US","TLE_LINE2":"2 44943  53.0540 239.0076 0001064  78.0778 282.0331 15.06471712185937","BSTAR":"0.00125870000000","PERIAPSIS":"546.257","INCLINATION":"53.0540","ECCENTRICITY":"0.00010640","RA_OF_ASC_NODE":"239.0076","SITE":"AFETR","REF_FRAME":"TEME","REV_AT_EPOCH":"18593","MEAN_MOTION":"15.06471712","TLE_LINE1":"1 44943U 20001AF  23141.69642818  .00018553  00000-0  12587-2 0  9999","MEAN_ELEMENT_THEORY":"SGP4","MEAN_ANOMALY":"282.0331","FILE":"3914061","DECAY_DATE":null,"MEAN_MOTION_DOT":"0.00018553","TIME_SYSTEM":"UTC","ARG_OF_PERICENTER":"78.0778","GP_ID":"232279808","NORAD_CAT_ID":"44943"},{"ECCENTRICITY":"0.00010070","RA_OF_ASC_NODE":"239.0925","SITE":"AFETR","PERIAPSIS":"546.518","INCLINATION":"53.0533","MEAN_MOTION":"15.06399481","TLE_LINE1":"1 44944U 20001AG  23141.67803784  .00017928  00000-0  12194-2 0  9998","MEAN_ELEMENT_THEORY":"SGP4","MEAN_ANOMALY":"277.3454","REF_FRAME":"TEME","REV_AT_EPOCH":"18593","MEAN_MOTION_DOT":"0.00017928","FILE":"3914061","DECAY_DATE":null,"GP_ID":"232280058","NORAD_CAT_ID":"44944","TIME_SYSTEM":"UTC","ARG_OF_PERICENTER":"82.7650","CLASSIFICATION_TYPE":"U","PERIOD":"95.592","MEAN_MOTION_DDOT":"0.0000000000000","APOAPSIS":"547.913","OBJECT_TYPE":"PAYLOAD","RCS_SIZE":"LARGE","EPOCH":"2023-05-21T16:16:22.469376","OBJECT_NAME":"STARLINK-1108","LAUNCH_DATE":"2020-01-07","EPHEMERIS_TYPE":"0","SEMIMAJOR_AXIS":"6925.350","OBJECT_ID":"2020-001AG","ELEMENT_SET_NO":"999","CENTER_NAME":"EARTH","COUNTRY_CODE":"US","TLE_LINE2":"2 44944  53.0533 239.0925 0001007  82.7650 277.3454 15.06399481185936","BSTAR":"0.00121940000000"},{"OBJECT_ID":"2020-001AH","SEMIMAJOR_AXIS":"6925.149","EPHEMERIS_TYPE":"0","CENTER_NAME":"EARTH","ELEMENT_SET_NO":"999","BSTAR":"0.00135390000000","COUNTRY_CODE":"US","TLE_LINE2":"2 44945  53.0535 239.8548 0001148  85.5580 274.5540 15.06464995185902","OBJECT_TYPE":"PAYLOAD","MEAN_MOTION_DDOT":"0.0000000000000","APOAPSIS":"547.809","PERIOD":"95.588","CLASSIFICATION_TYPE":"U","OBJECT_NAME":"STARLINK-1109","EPOCH":"2023-05-21T12:12:10.779840","RCS_SIZE":"LARGE","LAUNCH_DATE":"2020-01-07","MEAN_MOTION_DOT":"0.00019978","DECAY_DATE":null,"FILE":"3913738","NORAD_CAT_ID":"44945","GP_ID":"232246341","TIME_SYSTEM":"UTC","ARG_OF_PERICENTER":"85.5580","SITE":"AFETR","RA_OF_ASC_NODE":"239.8548","ECCENTRICITY":"0.00011480","INCLINATION":"53.0535","PERIAPSIS":"546.219","MEAN_ANOMALY":"274.5540","MEAN_ELEMENT_THEORY":"SGP4","TLE_LINE1":"1 44945U 20001AH  23141.50845810  .00019978  00000-0  13539-2 0  9998","MEAN_MOTION":"15.06464995","REV_AT_EPOCH":"18590","REF_FRAME":"TEME"},{"TLE_LINE2":"2 44946  53.0152 186.3018 0008223 357.0891   3.0062 15.38099837186649","COUNTRY_CODE":"US","BSTAR":"0.00040713000000","ELEMENT_SET_NO":"999","CENTER_NAME":"EARTH","EPHEMERIS_TYPE":"0","SEMIMAJOR_AXIS":"6829.866","OBJECT_ID":"2020-001AJ","LAUNCH_DATE":"2020-01-07","RCS_SIZE":"LARGE","EPOCH":"2023-05-21T20:28:04.448064","OBJECT_NAME":"STARLINK-1110","CLASSIFICATION_TYPE":"U","PERIOD":"93.622","APOAPSIS":"457.347","MEAN_MOTION_DDOT":"0.0000000000000","OBJECT_TYPE":"PAYLOAD","TIME_SYSTEM":"UTC","ARG_OF_PERICENTER":"357.0891","GP_ID":"232281060","NORAD_CAT_ID":"44946","FILE":"3914061","DECAY_DATE":null,"MEAN_MOTION_DOT":"0.00015146","REF_FRAME":"TEME","REV_AT_EPOCH":"18664","MEAN_MOTION":"15.38099837","TLE_LINE1":"1 44946U 20001AJ  23141.85282926  .00015146  00000-0  40713-3 0  9998","MEAN_ANOMALY":"3.0062","MEAN_ELEMENT_THEORY":"SGP4","PERIAPSIS":"446.114","INCLINATION":"53.0152","ECCENTRICITY":"0.00082230","RA_OF_ASC_NODE":"186.3018","SITE":"AFETR"},{"BSTAR":"0.00001751000000","TLE_LINE2":"2 44947  53.0511 215.0728 0001214  75.5258 284.5896 15.76734359186298","COUNTRY_CODE":"US","CENTER_NAME":"EARTH","ELEMENT_SET_NO":"999","OBJECT_ID":"2020-001AK","SEMIMAJOR_AXIS":"6717.837","EPHEMERIS_TYPE":"0","LAUNCH_DATE":"2020-01-07","OBJECT_NAME":"STARLINK-1116","EPOCH":"2023-05-21T22:02:04.081920","RCS_SIZE":"LARGE","OBJECT_TYPE":"PAYLOAD","APOAPSIS":"340.518","MEAN_MOTION_DDOT":"0.0000000000000","PERIOD":"91.328","CLASSIFICATION_TYPE":"U","ARG_OF_PERICENTER":"75.5258","TIME_SYSTEM":"UTC","NORAD_CAT_ID":"44947","GP_ID":"232279308","DECAY_DATE":null,"FILE":"3914061","MEAN_MOTION_DOT":"0.00002213","REV_AT_EPOCH":"18629","REF_FRAME":"TEME","MEAN_ELEMENT_THEORY":"SGP4","MEAN_ANOMALY":"284.5896","TLE_LINE1":"1 44947U 20001AK  23141.91810280  .00002213  00000-0  17510-4 0  9997","MEAN_MOTION":"15.76734359","INCLINATION":"53.0511","PERIAPSIS":"338.887","SITE":"AFETR","RA_OF_ASC_NODE":"215.0728","ECCENTRICITY":"0.00012140"},{"RCS_SIZE":"LARGE","EPOCH":"2023-05-21T13:21:10.601280","OBJECT_NAME":"STARLINK-1122","LAUNCH_DATE":"2020-01-07","CLASSIFICATION_TYPE":"U","PERIOD":"95.587","MEAN_MOTION_DDOT":"0.0000000000000","APOAPSIS":"547.628","OBJECT_TYPE":"PAYLOAD","COUNTRY_CODE":"US","TLE_LINE2":"2 44949  53.0538 239.6391 0000923  72.5337 287.5753 15.06473245185918","BSTAR":"0.00166690000000","EPHEMERIS_TYPE":"0","SEMIMAJOR_AXIS":"6925.124","OBJECT_ID":"2020-001AM","ELEMENT_SET_NO":"999","CENTER_NAME":"EARTH","MEAN_MOTION":"15.06473245","TLE_LINE1":"1 44949U 20001AM  23141.55637270  .00024683  00000-0  16669-2 0  9992","MEAN_ANOMALY":"287.5753","MEAN_ELEMENT_THEORY":"SGP4","REF_FRAME":"TEME","REV_AT_EPOCH":"18591","ECCENTRICITY":"0.00009230","RA_OF_ASC_NODE":"239.6391","SITE":"AFETR","PERIAPSIS":"546.350","INCLINATION":"53.0538","GP_ID":"232279558","NORAD_CAT_ID":"44949","TIME_SYSTEM":"UTC","ARG_OF_PERICENTER":"72.5337","MEAN_MOTION_DOT":"0.00024683","FILE":"3914061","DECAY_DATE":null}];
